GLOBALSTAR M067         
1 32263U 07048A   25356.83892958 -.00000079  00000+0  13750-3 0  9993
2 32263  51.9699 203.9160 0002020  53.9835 318.5980 12.40683179832902
GLOBALSTAR M070         
1 32264U 07048B   25356.52968656 -.00000063  00000+0  22566-3 0  9997
2 32264  51.9756 274.7313 0000556  63.2458 108.2754 12.62327701837458
GLOBALSTAR M066         
1 32265U 07048C   25356.86234010 -.00000086  00000+0  73391-4 0  9993
2 32265  51.9566 204.0907 0005709  42.5384 330.9509 12.30383611838524
GLOBALSTAR M068         
1 32266U 07048D   25356.44997285 -.00000079  00000+0  13727-3 0  9996
2 32266  51.9889  88.3612 0001510 162.6699 277.7004 12.62835672841344
GLOBALSTAR M079         
1 37188U 10054A   25356.87386073 -.00000073  00000+0  17083-3 0  9992
2 37188  52.0047 285.3952 0000777  35.6882  32.1326 12.62261698700281
GLOBALSTAR M074         
1 37189U 10054B   25356.20763892 -.00000075  00000+0  16303-3 0  9994
2 37189  52.0026 286.7166 0000839  59.2711  99.3039 12.62264270700806
GLOBALSTAR M076         
1 37190U 10054C   25356.84044119 -.00000083  00000+0  11826-3 0  9994
2 37190  52.0040 284.9795 0000938  50.6727 343.8397 12.62268291700603
GLOBALSTAR M077         
1 37191U 10054D   25356.90835138 -.00000085  00000+0 -12993-3 0  9990
2 37191  51.9977 267.0592 0001338  40.7204  37.6961 11.68176416700543
